[{"OBJECT_NAME":"ONEWEB-0463","OBJECT_ID":"2022-012AE","EPOCH":"2026-03-09T21:15:53.289216","MEAN_MOTION":13.1764999,"ECCENTRICITY":0.00019723,"INCLINATION":87.9151,"RA_OF_ASC_NODE":25.5994,"ARG_OF_PERICENTER":78.6304,"MEAN_ANOMALY":281.5049,"EPHEMERIS_TYPE":0,"CLASSIFICATION_TYPE":"U","NORAD_CAT_ID":51650,"ELEMENT_SET_NO":999,"REV_AT_EPOCH":20059,"BSTAR":0.00015459109,"MEAN_MOTION_DOT":7.3e-7,"MEAN_MOTION_DDOT":0},{"OBJECT_NAME":"SL-14 DEB","OBJECT_ID":"1991-056DD","EPOCH":"2026-02-22T02:50:15.122976","MEAN_MOTION":13.24730307,"ECCENTRICITY":0.0033433,"INCLINATION":82.5458,"RA_OF_ASC_NODE":201.7449,"ARG_OF_PERICENTER":282.2949,"MEAN_ANOMALY":77.4435,"EPHEMERIS_TYPE":0,"CLASSIFICATION_TYPE":"U","NORAD_CAT_ID":47079,"ELEMENT_SET_NO":999,"REV_AT_EPOCH":25649,"BSTAR":0.0013771,"MEAN_MOTION_DOT":6.08e-6,"MEAN_MOTION_DDOT":0}]
